IRIDIUM 57              
1 25273U 98019B   24352.90189143  .00000785  00000+0  26555-3 0  9992
2 25273  86.3979 221.1445 0001988  83.0615 277.0808 14.35640316398770
IRIDIUM 63              
1 25286U 98021B   24352.99020215  .00001032  00000+0  34695-3 0  9992
2 25286  86.3999 158.0998 0002101  93.6748 266.4689 14.36252461398106
IRIDIUM 69              
1 25319U 98026A   24352.92945816  .00000982  00000+0  30200-3 0  9991
2 25319  86.3998 171.9435 0000430 231.0536 129.0625 14.40593994396968
IRIDIUM 71              
1 25320U 98026B   24353.10156070  .00001034  00000+0  31688-3 0  9990
2 25320  86.3994 166.6009 0001934  23.4338 336.6949 14.40833609397761
IRIDIUM 73              
1 25344U 98032C   24352.82444353  .00001647  00000+0  40954-3 0  9991
2 25344  86.4421 123.8396 0001443 101.6228 258.5139 14.51247211404255
IRIDIUM 82              
1 25467U 98051A   24352.84753158  .00026618  00000+0  10497-2 0  9999
2 25467  86.3734 198.0129 0104195 260.4049  98.5410 15.20449315396292
